IRIDIUM 921             
1 24873U 97034E   24338.67317967  .00143458  00000+0  13482-2 0  9997
2 24873  86.3720 202.8585 0003459  48.2619 311.8944 15.66690430501425
IRIDIUM 26              
1 24903U 97043A   24338.86541434  .00001020  00000+0  33905-3 0  9991
2 24903  86.3991 192.5812 0002106  79.4894 280.6540 14.36830262428693
IRIDIUM 22              
1 24907U 97043E   24339.12387166  .00000942  00000+0  31975-3 0  9992
2 24907  86.3996 195.8411 0001959  85.1975 274.9445 14.35679028428771
DUMMY MASS 1            
1 24925U 97048A   24338.77257233  .00001096  00000+0  12024-3 0  9993
2 24925  86.3372 225.5961 0008868 111.0931 249.1243 14.86656688476098
DUMMY MASS 2            
1 24926U 97048B   24339.17354564  .00001118  00000+0  12353-3 0  9994
2 24926  86.3371 226.9825 0009453 119.5003 240.7166 14.86412587476174
IRIDIUM 29              
1 24944U 97051A   24338.72503621  .00001027  00000+0  34605-3 0  9991
2 24944  86.3983 225.7971 0002068  88.4502 271.6932 14.36142281425214
IRIDIUM 33              
1 24946U 97051C   24338.77760993  .00000724  00000+0  24925-3 0  9992
2 24946  86.3900 225.0229 0008239  10.7232 349.4138 14.34673326424722
IRIDIUM 28              
1 24948U 97051E   24339.17369460  .00001016  00000+0  33576-3 0  9990
2 24948  86.3991 223.2367 0002212  71.1141 289.0296 14.37091098425900
